OBJECT_NAME,OBJECT_ID,EPOCH,MEAN_MOTION,ECCENTRICITY,INCLINATION,RA_OF_ASC_NODE,ARG_OF_PERICENTER,MEAN_ANOMALY,EPHEMERIS_TYPE,CLASSIFICATION_TYPE,NORAD_CAT_ID,ELEMENT_SET_NO,REV_AT_EPOCH,BSTAR,MEAN_MOTION_DOT,MEAN_MOTION_DDOT
ORBCOMM FM31,1999-065B,2024-12-31T20:08:13.570080,14.36568085,.0004082,45.0207,155.0030,256.1380,103.9014,0,U,25981,999,30993,.13435E-2,.3845E-4,0
ORBCOMM FM32,1999-065C,2024-12-31T20:14:01.908960,14.35602225,.0005753,45.0133,170.4293,260.9529,99.0667,0,U,25982,999,31054,.12792E-2,.3582E-4,0
ORBCOMM FM33,1999-065D,2024-12-31T13:51:12.262464,14.39160520,.0010154,45.0288,75.3982,288.2432,71.7312,0,U,25983,999,31191,.15559E-2,.4726E-4,0
ORBCOMM FM36,1999-065E,2024-12-31T21:03:03.690720,14.37276568,.000461,45.0371,163.3253,182.5881,177.4944,0,U,25984,999,31034,.17065E-2,.4996E-4,0
ORBCOMM FM35,1999-065F,2024-12-31T19:30:21.065184,14.36400831,.0003545,45.0374,167.4077,259.1668,100.8781,0,U,25985,999,31071,.11743E-2,.3331E-4,0
ORBCOMM FM34,1999-065G,2024-12-31T20:28:08.357664,14.36442133,.000468,45.0367,167.7440,214.6155,145.4389,0,U,25986,999,31083,.13996E-2,.4001E-4,0
ORBCOMM FM38,2008-031A,2024-12-31T19:08:08.098080,14.79982010,.000547,48.4407,32.2474,28.6350,331.4865,0,U,33060,999,88994,.89755E-3,.6656E-4,0
ORBCOMM FM41,2008-031B,2024-12-31T20:32:10.229280,14.79616902,.0004872,48.4441,39.2025,12.4465,157.6446,0,U,33061,999,88944,.92608E-3,.6814E-4,0
ORBCOMM FM29,2008-031C,2024-12-31T20:21:11.183904,14.79653439,.0006548,48.4393,47.2128,13.8574,156.6075,0,U,33062,999,88935,.94934E-3,.6997E-4,0
ORBCOMM FM39,2008-031D,2024-12-31T16:35:09.199680,14.78372205,.0007671,48.4404,70.4859,348.6440,11.4300,0,U,33063,999,88900,.86078E-3,.6131E-4,0
ORBCOMM FM37,2008-031E,2024-12-31T15:25:22.107936,14.78577514,.0005933,48.4399,59.5141,4.3540,131.4166,0,U,33064,999,88924,.80319E-3,.5734E-4,0
ORBCOMM FM40,2008-031F,2024-12-31T15:53:02.279616,14.80501415,.0007218,48.4421,46.0737,17.1682,136.6955,0,U,33065,999,88932,.97651E-3,.7354E-4,0
VESSELSAT 1,2011-058C,2024-12-31T09:26:42.968832,14.11286964,.0013783,19.9634,29.1600,140.2945,219.8470,0,U,37840,999,68257,.19995E-3,.632E-5,0
ORBCOMM FM107,2014-040B,2024-12-31T17:37:04.046304,14.57693842,.0002386,47.0047,87.8751,250.5382,109.5246,0,U,40087,999,55670,.64879E-3,.2822E-4,0
ORBCOMM FM106,2014-040C,2024-12-31T20:40:27.033600,14.68616016,.0017273,47.0601,282.6360,9.1084,351.0116,0,U,40088,999,55887,.84338E-3,.4779E-4,0
ORBCOMM FM111,2014-040D,2024-12-31T21:23:53.574720,14.84601950,.0030016,47.0006,154.7323,114.7755,245.6269,0,U,40089,999,56535,.98435E-3,.8273E-4,0
ORBCOMM FM114,2015-081A,2024-12-31T10:51:58.924512,14.57693094,.0003047,47.0032,358.8202,300.1081,59.9502,0,U,41179,999,47999,.68048E-3,.2968E-4,0
ORBCOMM FM119,2015-081B,2024-12-31T21:52:47.316000,14.57611704,.0001208,46.9996,265.9018,354.2318,5.8553,0,U,41180,999,48131,.66049E-3,.287E-4,0
ORBCOMM FM105,2015-081C,2024-12-31T20:02:14.987616,14.44942056,.0002091,47.0010,255.0896,289.1617,70.9037,0,U,41181,999,47654,.41351E-3,.1297E-4,0
ORBCOMM FM118,2015-081E,2024-12-31T16:23:57.205536,14.57656978,.0001221,47.0046,357.4955,62.0237,298.0772,0,U,41183,999,48000,.88924E-3,.3928E-4,0
ORBCOMM FM112,2015-081F,2024-12-31T21:19:06.540960,14.57659873,.0001381,46.9978,265.1882,332.8113,27.2699,0,U,41184,999,48125,.81338E-3,.3578E-4,0
ORBCOMM FM113,2015-081G,2024-12-31T20:46:34.498848,14.57660062,.0001154,46.9997,265.6004,0.3053,359.7833,0,U,41185,999,48123,.8119E-3,.3572E-4,0
ORBCOMM FM108,2015-081J,2024-12-31T21:16:48.298368,14.57676377,.0003213,47.0020,176.7657,243.7716,116.2839,0,U,41187,999,48238,.88203E-3,.3896E-4,0
ORBCOMM FM117,2015-081K,2024-12-31T20:28:54.738048,14.57663567,.0003437,46.9984,175.7462,256.1528,103.8975,0,U,41188,999,48247,.66618E-3,.29E-4,0
ORBCOMM FM116,2015-081L,2024-12-31T21:52:57.238176,14.57677067,.0002062,47.0008,265.3173,351.9897,8.0955,0,U,41189,999,48124,.83141E-3,.3663E-4,0
