ORBCOMM FM31            
1 25981U 99065B   24366.83904595  .00003845  00000+0  13435-2 0  9995
2 25981  45.0207 155.0030 0004082 256.1380 103.9014 14.36568085309936
ORBCOMM FM32            
1 25982U 99065C   24366.84307765  .00003582  00000+0  12792-2 0  9996
2 25982  45.0133 170.4293 0005753 260.9529  99.0667 14.35602225310543
ORBCOMM FM33            
1 25983U 99065D   24366.57722526  .00004726  00000+0  15559-2 0  9998
2 25983  45.0288  75.3982 0010154 288.2432  71.7312 14.39160520311917
ORBCOMM FM36            
1 25984U 99065E   24366.87712605  .00004996  00000+0  17065-2 0  9992
2 25984  45.0371 163.3253 0004610 182.5881 177.4944 14.37276568310343
ORBCOMM FM35            
1 25985U 99065F   24366.81274381  .00003331  00000+0  11743-2 0  9990
2 25985  45.0374 167.4077 0003545 259.1668 100.8781 14.36400831310717
ORBCOMM FM34            
1 25986U 99065G   24366.85287451  .00004001  00000+0  13996-2 0  9994
2 25986  45.0367 167.7440 0004680 214.6155 145.4389 14.36442133310838
ORBCOMM FM38            
1 33060U 08031A   24366.79731595  .00006656  00000+0  89755-3 0  9990
2 33060  48.4407  32.2474 0005470  28.6350 331.4865 14.79982010889942
ORBCOMM FM41            
1 33061U 08031B   24366.85567395  .00006814  00000+0  92608-3 0  9990
2 33061  48.4441  39.2025 0004872  12.4465 157.6446 14.79616902889445
ORBCOMM FM29            
1 33062U 08031C   24366.84804611  .00006997  00000+0  94934-3 0  9991
2 33062  48.4393  47.2128 0006548  13.8574 156.6075 14.79653439889356
ORBCOMM FM39            
1 33063U 08031D   24366.69107870  .00006131  00000+0  86078-3 0  9998
2 33063  48.4404  70.4859 0007671 348.6440  11.4300 14.78372205889007
ORBCOMM FM37            
1 33064U 08031E   24366.64261699  .00005734  00000+0  80319-3 0  9994
2 33064  48.4399  59.5141 0005933   4.3540 131.4166 14.78577514889248
ORBCOMM FM40            
1 33065U 08031F   24366.66183194  .00007354  00000+0  97651-3 0  9997
2 33065  48.4421  46.0737 0007218  17.1682 136.6955 14.80501415889326
VESSELSAT 1             
1 37840U 11058C   24366.39355288  .00000632  00000+0  19995-3 0  9997
2 37840  19.9634  29.1600 0013783 140.2945 219.8470 14.11286964682572
ORBCOMM FM107           
1 40087U 14040B   24366.73407461  .00002822  00000+0  64879-3 0  9991
2 40087  47.0047  87.8751 0002386 250.5382 109.5246 14.57693842556702
ORBCOMM FM106           
1 40088U 14040C   24366.86142400  .00004779  00000+0  84338-3 0  9990
2 40088  47.0601 282.6360 0017273   9.1084 351.0116 14.68616016558878
ORBCOMM FM111           
1 40089U 14040D   24366.89159230  .00008273  00000+0  98435-3 0  9999
2 40089  47.0006 154.7323 0030016 114.7755 245.6269 14.84601950565351
ORBCOMM FM114           
1 41179U 15081A   24366.45276533  .00002968  00000+0  68048-3 0  9996
2 41179  47.0032 358.8202 0003047 300.1081  59.9502 14.57693094479991
ORBCOMM FM119           
1 41180U 15081B   24366.91165875  .00002870  00000+0  66049-3 0  9996
2 41180  46.9996 265.9018 0001208 354.2318   5.8553 14.57611704481316
ORBCOMM FM105           
1 41181U 15081C   24366.83489569  .00001297  00000+0  41351-3 0  9998
2 41181  47.0010 255.0896 0002091 289.1617  70.9037 14.44942056476541
ORBCOMM FM118           
1 41183U 15081E   24366.68330099  .00003928  00000+0  88924-3 0  9996
2 41183  47.0046 357.4955 0001221  62.0237 298.0772 14.57656978480009
ORBCOMM FM112           
1 41184U 15081F   24366.88827015  .00003578  00000+0  81338-3 0  9991
2 41184  46.9978 265.1882 0001381 332.8113  27.2699 14.57659873481259
ORBCOMM FM113           
1 41185U 15081G   24366.86567707  .00003572  00000+0  81190-3 0  9999
2 41185  46.9997 265.6004 0001154   0.3053 359.7833 14.57660062481233
ORBCOMM FM108           
1 41187U 15081J   24366.88667012  .00003896  00000+0  88203-3 0  9994
2 41187  47.0020 176.7657 0003213 243.7716 116.2839 14.57676377482382
ORBCOMM FM117           
1 41188U 15081K   24366.85341132  .00002900  00000+0  66618-3 0  9995
2 41188  46.9984 175.7462 0003437 256.1528 103.8975 14.57663567482470
ORBCOMM FM116           
1 41189U 15081L   24366.91177359  .00003663  00000+0  83141-3 0  9998
2 41189  47.0008 265.3173 0002062 351.9897   8.0955 14.57677067481249
